{
    "links": {
        "self": "http://www.neowsapp.com/rest/v1/neo/3986635?api_key=iIulBulltgU6a56xZRHN4H3l9WmuAYTsLGpBGhQ2"
    },
    "id": "3986635",
    "neo_reference_id": "3986635",
    "name": "(2019 YX6)",
    "designation": "2019 YX6",
    "nasa_jpl_url": "http://ssd.jpl.nasa.gov/sbdb.cgi?sstr=3986635",
    "absolute_magnitude_h": 21.9,
    "estimated_diameter": {
        "kilometers": {
            "estimated_diameter_min": 0.1108038821,
            "estimated_diameter_max": 0.2477650126
        },
        "meters": {
            "estimated_diameter_min": 110.8038821264,
            "estimated_diameter_max": 247.7650126055
        },
        "miles": {
            "estimated_diameter_min": 0.068850319,
            "estimated_diameter_max": 0.1539539936
        },
        "feet": {
            "estimated_diameter_min": 363.5298086356,
            "estimated_diameter_max": 812.8773639568
        }
    },
    "is_potentially_hazardous_asteroid": true,
    "close_approach_data": [
        {
            "close_approach_date": "2015-04-27",
            "close_approach_date_full": "2015-Apr-27 07:43",
            "epoch_date_close_approach": 1430120580000,
            "relative_velocity": {
                "kilometers_per_second": "9.3867201232",
                "kilometers_per_hour": "33792.1924435316",
                "miles_per_hour": "20997.1542435933"
            },
            "miss_distance": {
                "astronomical": "0.6725107755",
                "lunar": "261.6066916695",
                "kilometers": "100606179.566848185",
                "miles": "62513781.180287553"
            },
            "orbiting_body": "Juptr"
        },
        {
            "close_approach_date": "2019-10-12",
            "close_approach_date_full": "2019-Oct-12 20:14",
            "epoch_date_close_approach": 1570911240000,
            "relative_velocity": {
                "kilometers_per_second": "37.4703771277",
                "kilometers_per_hour": "134893.3576597416",
                "miles_per_hour": "83817.4865969656"
            },
            "miss_distance": {
                "astronomical": "0.1256530109",
                "lunar": "48.8790212401",
                "kilometers": "18797422.789726783",
                "miles": "11680176.9045362854"
            },
            "orbiting_body": "Venus"
        },
        {
            "close_approach_date": "2019-12-16",
            "close_approach_date_full": "2019-Dec-16 23:04",
            "epoch_date_close_approach": 1576537440000,
            "relative_velocity": {
                "kilometers_per_second": "30.7743550472",
                "kilometers_per_hour": "110787.6781698055",
                "miles_per_hour": "68839.1548050105"
            },
            "miss_distance": {
                "astronomical": "0.0295395649",
                "lunar": "11.4908907461",
                "kilometers": "4419055.989766763",
                "miles": "2745874.0641688094"
            },
            "orbiting_body": "Earth"
        }
    ],
    "orbital_data": {
        "orbit_id": "1",
        "orbit_determination_date": "2020-01-10 10:12:12",
        "first_observation_date": "2019-12-21",
        "last_observation_date": "2020-01-05",
        "data_arc_in_days": 15,
        "observations_used": 232,
        "orbit_uncertainty": "8",
        "minimum_orbit_intersection": ".0258235",
        "jupiter_tisserand_invariant": "2.229",
        "epoch_osculation": "2458843.5",
        "eccentricity": ".8913219277970852",
        "semi_major_axis": "3.504297763611557",
        "inclination": "1.847902973380416",
        "ascending_node_longitude": "317.9777928819682",
        "orbital_period": "2396.072358616123",
        "perihelion_distance": ".3808403253742897",
        "perihelion_argument": "18.20266512913929",
        "aphelion_distance": "6.627755201848824",
        "perihelion_time": "2458794.377220647943",
        "mean_anomaly": "7.380495210484471",
        "mean_motion": ".1502458799733084",
        "equinox": "J2000",
        "orbit_class": {
            "orbit_class_type": "APO",
            "orbit_class_description": "Near-Earth asteroid orbits which cross the Earth’s orbit similar to that of 1862 Apollo",
            "orbit_class_range": "a (semi-major axis) > 1.0 AU; q (perihelion) < 1.017 AU"
        }
    },
    "is_sentry_object": false
}